{"type": "FeatureCollection", "features": [ {"type": "Feature", "properties": {"norad_id": 34547, "name": "COSMOS 2251 DEB", "group": "cosmos-2251-debris", "lat": 15.994812022081788, "lon": -101.4278539179751, "alt_km": 641.8689020532238, "timestamp": "2025-12-21T16:47:55.133472+00:00", "meta": {"OBJECT_NAME": "COSMOS 2251 DEB", "OBJECT_ID": "1993-036UH", "EPOCH": "2025-12-21T06:16:36.725088", "MEAN_MOTION": 14.72512483, "ECCENTRICITY": 0.0016393, "INCLINATION": 74.0317, "RA_OF_ASC_NODE": 84.1334, "ARG_OF_PERICENTER": 162.7845, "MEAN_ANOMALY": 197.3887, "EPHEMERIS_TYPE": 0, "CLASSIFICATION_TYPE": "U", "NORAD_CAT_ID": 34547, "ELEMENT_SET_NO": 999, "REV_AT_EPOCH": 88647, "BSTAR": 0.0012277, "MEAN_MOTION_DOT": 7.792e-05, "MEAN_MOTION_DDOT": 0}, "tle": {"line1": "1 34547U 93036UH  25355.26153617  .00007792  00000+0  12277-2 0  9990", "line2": "2 34547  74.0317  84.1334 0016393 162.7845 197.3887 14.72512483886478"}}, "geometry": {"type": "Point", "coordinates": [-101.4278539179751, 15.994812022081788]}}, {"type": "Feature", "properties": {"norad_id": 34553, "name": "COSMOS 2251 DEB", "group": "cosmos-2251-debris", "lat": -50.39942514086866, "lon": 154.58284470030313, "alt_km": 699.1416968044523, "timestamp": "2025-12-21T16:47:55.133482+00:00", "meta": {"OBJECT_NAME": "COSMOS 2251 DEB", "OBJECT_ID": "1993-036UP", "EPOCH": "2025-12-21T12:14:40.587936", "MEAN_MOTION": 14.57796029, "ECCENTRICITY": 0.0019103, "INCLINATION": 74.0239, "RA_OF_ASC_NODE": 175.2044, "ARG_OF_PERICENTER": 251.8858, "MEAN_ANOMALY": 139.3143, "EPHEMERIS_TYPE": 0, "CLASSIFICATION_TYPE": "U", "NORAD_CAT_ID": 34553, "ELEMENT_SET_NO": 999, "REV_AT_EPOCH": 88224, "BSTAR": 0.00082619, "MEAN_MOTION_DOT": 3.761e-05, "MEAN_MOTION_DDOT": 0}, "tle": {"line1": "1 34553U 93036UP  25355.51019199  .00003761  00000+0  82619-3 0  9991", "line2": "2 34553  74.0239 175.2044 0019103 251.8858 139.3143 14.57796029882249"}}, "geometry": {"type": "Point", "coordinates": [154.58284470030313, -50.39942514086866]}}, {"type": "Feature", "properties": {"norad_id": 34554, "name": "COSMOS 2251 DEB", "group": "cosmos-2251-debris", "lat": 43.62661498494182, "lon": 86.66365849367641, "alt_km": 775.8222548079057, "timestamp": "2025-12-21T16:47:55.133493+00:00", "meta": {"OBJECT_NAME": "COSMOS 2251 DEB", "OBJECT_ID": "1993-036UQ", "EPOCH": "2025-12-20T05:48:54.109152", "MEAN_MOTION": 14.37952739, "ECCENTRICITY": 0.002333, "INCLINATION": 74.0392, "RA_OF_ASC_NODE": 285.1768, "ARG_OF_PERICENTER": 346.0878, "MEAN_ANOMALY": 165.1635, "EPHEMERIS_TYPE": 0, "CLASSIFICATION_TYPE": "U", "NORAD_CAT_ID": 34554, "ELEMENT_SET_NO": 999, "REV_AT_EPOCH": 87863, "BSTAR": 0.00024183, "MEAN_MOTION_DOT": 7.07e-06, "MEAN_MOTION_DDOT": 0}, "tle": {"line1": "1 34554U 93036UQ  25354.24229293  .00000707  00000+0  24183-3 0  9998", "line2": "2 34554  74.0392 285.1768 0023330 346.0878 165.1635 14.37952739878631"}}, "geometry": {"type": "Point", "coordinates": [86.66365849367641, 43.62661498494182]}}, {"type": "Feature", "properties": {"norad_id": 34556, "name": "COSMOS 2251 DEB", "group": "cosmos-2251-debris", "lat": 36.89949150283842, "lon": -85.18476985880709, "alt_km": 628.274584461743, "timestamp": "2025-12-21T16:47:55.133503+00:00", "meta": {"OBJECT_NAME": "COSMOS 2251 DEB", "OBJECT_ID": "1993-036US", "EPOCH": "2025-12-20T17:58:02.520192", "MEAN_MOTION": 14.78025681, "ECCENTRICITY": 0.00068003, "INCLINATION": 74.0159, "RA_OF_ASC_NODE": 109.1125, "ARG_OF_PERICENTER": 169.8839, "MEAN_ANOMALY": 311.7101, "EPHEMERIS_TYPE": 0, "CLASSIFICATION_TYPE": "U", "NORAD_CAT_ID": 34556, "ELEMENT_SET_NO": 999, "REV_AT_EPOCH": 88447, "BSTAR": 0.0013550836, "MEAN_MOTION_DOT": 9.769e-05, "MEAN_MOTION_DDOT": 0}, "tle": {"line1": "1 34556U 93036US  25354.74864028  .00009769  00000+0  13551-2 0  9999", "line2": "2 34556  74.0159 109.1125 0006800 169.8839 311.7101 14.78025681884475"}}, "geometry": {"type": "Point", "coordinates": [-85.18476985880709, 36.89949150283842]}}, {"type": "Feature", "properties": {"norad_id": 34560, "name": "COSMOS 2251 DEB", "group": "cosmos-2251-debris", "lat": -30.204128610333214, "lon": -45.717530739103175, "alt_km": 649.3930541678883, "timestamp": "2025-12-21T16:47:55.133513+00:00", "meta": {"OBJECT_NAME": "COSMOS 2251 DEB", "OBJECT_ID": "1993-036UW", "EPOCH": "2025-12-21T09:34:44.023296", "MEAN_MOTION": 14.7233853, "ECCENTRICITY": 0.0014019, "INCLINATION": 74.0171, "RA_OF_ASC_NODE": 125.2641, "ARG_OF_PERICENTER": 207.4959, "MEAN_ANOMALY": 210.1131, "EPHEMERIS_TYPE": 0, "CLASSIFICATION_TYPE": "U", "NORAD_CAT_ID": 34560, "ELEMENT_SET_NO": 999, "REV_AT_EPOCH": 88379, "BSTAR": 0.0016006, "MEAN_MOTION_DOT": 0.00010125, "MEAN_MOTION_DDOT": 0}, "tle": {"line1": "1 34560U 93036UW  25355.39912064  .00010125  00000+0  16006-2 0  9996", "line2": "2 34560  74.0171 125.2641 0014019 207.4959 210.1131 14.72338530883792"}}, "geometry": {"type": "Point", "coordinates": [-45.717530739103175, -30.204128610333214]}}, {"type": "Feature", "properties": {"norad_id": 34563, "name": "COSMOS 2251 DEB", "group": "cosmos-2251-debris", "lat": -44.928569267127834, "lon": 23.570064315944528, "alt_km": 737.4308957551684, "timestamp": "2025-12-21T16:47:55.133523+00:00", "meta": {"OBJECT_NAME": "COSMOS 2251 DEB", "OBJECT_ID": "1993-036UZ", "EPOCH": "2025-12-21T12:34:03.901728", "MEAN_MOTION": 14.46534842, "ECCENTRICITY": 0.0013914, "INCLINATION": 74.0367, "RA_OF_ASC_NODE": 187.3088, "ARG_OF_PERICENTER": 280.8759, "MEAN_ANOMALY": 108.7913, "EPHEMERIS_TYPE": 0, "CLASSIFICATION_TYPE": "U", "NORAD_CAT_ID": 34563, "ELEMENT_SET_NO": 999, "REV_AT_EPOCH": 88324, "BSTAR": 0.00033066, "MEAN_MOTION_DOT": 1.166e-05, "MEAN_MOTION_DDOT": 0}, "tle": {"line1": "1 34563U 93036UZ  25355.52365627  .00001166  00000+0  33066-3 0  9992", "line2": "2 34563  74.0367 187.3088 0013914 280.8759 108.7913 14.46534842883247"}}, "geometry": {"type": "Point", "coordinates": [23.570064315944528, -44.928569267127834]}}, {"type": "Feature", "properties": {"norad_id": 34564, "name": "COSMOS 2251 DEB", "group": "cosmos-2251-debris", "lat": 1.5054766455784243, "lon": 41.00340833225236, "alt_km": 769.9690663803522, "timestamp": "2025-12-21T16:47:55.133533+00:00", "meta": {"OBJECT_NAME": "COSMOS 2251 DEB", "OBJECT_ID": "1993-036VA", "EPOCH": "2025-12-21T01:40:16.342176", "MEAN_MOTION": 14.40703135, "ECCENTRICITY": 0.00193185, "INCLINATION": 74.0316, "RA_OF_ASC_NODE": 222.6004, "ARG_OF_PERICENTER": 325.3273, "MEAN_ANOMALY": 185.3128, "EPHEMERIS_TYPE": 0, "CLASSIFICATION_TYPE": "U", "NORAD_CAT_ID": 34564, "ELEMENT_SET_NO": 999, "REV_AT_EPOCH": 88126, "BSTAR": 0.00017237979, "MEAN_MOTION_DOT": 5.25e-06, "MEAN_MOTION_DDOT": 0}, "tle": {"line1": "1 34564U 93036VA  25355.06963359  .00000525  00000+0  17238-3 0  9999", "line2": "2 34564  74.0316 222.6004 0019318 325.3273 185.3128 14.40703135881269"}}, "geometry": {"type": "Point", "coordinates": [41.00340833225236, 1.5054766455784243]}}, {"type": "Feature", "properties": {"norad_id": 34567, "name": "COSMOS 2251 DEB", "group": "cosmos-2251-debris", "lat": 44.43154190774345, "lon": 156.94576833650368, "alt_km": 859.4183656725918, "timestamp": "2025-12-21T16:47:55.133543+00:00", "meta": {"OBJECT_NAME": "COSMOS 2251 DEB", "OBJECT_ID": "1993-036VD", "EPOCH": "2025-12-21T09:58:43.315104", "MEAN_MOTION": 14.24025588, "ECCENTRICITY": 0.0074197, "INCLINATION": 74.0408, "RA_OF_ASC_NODE": 141.1649, "ARG_OF_PERICENTER": 213.5588, "MEAN_ANOMALY": 177.2622, "EPHEMERIS_TYPE": 0, "CLASSIFICATION_TYPE": "U", "NORAD_CAT_ID": 34567, "ELEMENT_SET_NO": 999, "REV_AT_EPOCH": 87248, "BSTAR": 0.00018913, "MEAN_MOTION_DOT": 4.21e-06, "MEAN_MOTION_DDOT": 0}, "tle": {"line1": "1 34567U 93036VD  25355.41577911  .00000421  00000+0  18913-3 0  9992", "line2": "2 34567  74.0408 141.1649 0074197 213.5588 177.2622 14.24025588872481"}}, "geometry": {"type": "Point", "coordinates": [156.94576833650368, 44.43154190774345]}}, {"type": "Feature", "properties": {"norad_id": 34569, "name": "COSMOS 2251 DEB", "group": "cosmos-2251-debris", "lat": -52.81309874600722, "lon": 24.172519540470198, "alt_km": 891.2746368353964, "timestamp": "2025-12-21T16:47:55.133553+00:00", "meta": {"OBJECT_NAME": "COSMOS 2251 DEB", "OBJECT_ID": "1993-036VF", "EPOCH": "2025-12-21T07:31:30.980064", "MEAN_MOTION": 14.24772828, "ECCENTRICITY": 0.0157699, "INCLINATION": 73.9894, "RA_OF_ASC_NODE": 182.6328, "ARG_OF_PERICENTER": 9.0645, "MEAN_ANOMALY": 47.1114, "EPHEMERIS_TYPE": 0, "CLASSIFICATION_TYPE": "U", "NORAD_CAT_ID": 34569, "ELEMENT_SET_NO": 999, "REV_AT_EPOCH": 87090, "BSTAR": 0.00035959, "MEAN_MOTION_DOT": 9.27e-06, "MEAN_MOTION_DDOT": 0}, "tle": {"line1": "1 34569U 93036VF  25355.31355301  .00000927  00000+0  35959-3 0  9990", "line2": "2 34569  73.9894 182.6328 0157699   9.0645  47.1114 14.24772828870907"}}, "geometry": {"type": "Point", "coordinates": [24.172519540470198, -52.81309874600722]}}, {"type": "Feature", "properties": {"norad_id": 34570, "name": "COSMOS 2251 DEB", "group": "cosmos-2251-debris", "lat": 72.97314940254543, "lon": -87.31769105121334, "alt_km": 748.6242504217817, "timestamp": "2025-12-21T16:47:55.133563+00:00", "meta": {"OBJECT_NAME": "COSMOS 2251 DEB", "OBJECT_ID": "1993-036VG", "EPOCH": "2025-12-21T06:41:00.076704", "MEAN_MOTION": 13.99833504, "ECCENTRICITY": 0.0190292, "INCLINATION": 73.9568, "RA_OF_ASC_NODE": 203.4332, "ARG_OF_PERICENTER": 84.0165, "MEAN_ANOMALY": 37.063, "EPHEMERIS_TYPE": 0, "CLASSIFICATION_TYPE": "U", "NORAD_CAT_ID": 34570, "ELEMENT_SET_NO": 999, "REV_AT_EPOCH": 85720, "BSTAR": 0.00041501, "MEAN_MOTION_DOT": 6.89e-06, "MEAN_MOTION_DDOT": 0}, "tle": {"line1": "1 34570U 93036VG  25355.27847311  .00000689  00000+0  41501-3 0  9999", "line2": "2 34570  73.9568 203.4332 0190292  84.0165  37.0630 13.99833504857209"}}, "geometry": {"type": "Point", "coordinates": [-87.31769105121334, 72.97314940254543]}}]}